[{"OBJECT_NAME":"STARLINK-30085","OBJECT_ID":"2023-067X","EPOCH":"2026-03-09T19:43:42.532320","MEAN_MOTION":15.27572641,"ECCENTRICITY":0.00017635,"INCLINATION":43.0009,"RA_OF_ASC_NODE":270.021,"ARG_OF_PERICENTER":261.6576,"MEAN_ANOMALY":98.4075,"EPHEMERIS_TYPE":0,"CLASSIFICATION_TYPE":"U","NORAD_CAT_ID":56709,"ELEMENT_SET_NO":999,"REV_AT_EPOCH":15546,"BSTAR":4.9686794e-5,"MEAN_MOTION_DOT":1.105e-5,"MEAN_MOTION_DDOT":0},{"OBJECT_NAME":"PUCP-SAT 1","OBJECT_ID":"2013-066AC","EPOCH":"2026-03-09T22:02:13.763904","MEAN_MOTION":15.29426022,"ECCENTRICITY":0.00136836,"INCLINATION":97.5787,"RA_OF_ASC_NODE":61.0032,"ARG_OF_PERICENTER":300.1183,"MEAN_ANOMALY":59.87,"EPHEMERIS_TYPE":0,"CLASSIFICATION_TYPE":"U","NORAD_CAT_ID":39442,"ELEMENT_SET_NO":999,"REV_AT_EPOCH":66907,"BSTAR":0.00088755185,"MEAN_MOTION_DOT":0.00025373,"MEAN_MOTION_DDOT":0}]
